

*******************************************************************************
Ephemeris / WWW_USER Fri Feb  3 05:05:53 2023 Pasadena, USA      / Horizons    
*******************************************************************************
Target body name: Mercury (199)                   {source: DE441}
Center body name: Earth (399)                     {source: DE441}
Center-site name: GEOCENTRIC
*******************************************************************************
Start time      : A.D. 2023-Jan-01 00:00:00.0000 UT      
Stop  time      : A.D. 2030-Dec-31 00:00:00.0000 UT      
Step-size       : 1440 minutes
*******************************************************************************
Target pole/equ : IAU_MERCURY                     {West-longitude positive}
Target radii    : 2439.7 x 2439.7 x 2439.7 km     {Equator, meridian, pole}    
Center geodetic : 0.00000000,0.00000000,0.0000000 {E-lon(deg),Lat(deg),Alt(km)}
Center cylindric: 0.00000000,0.00000000,0.0000000 {E-lon(deg),Dxy(km),Dz(km)}
Center pole/equ : ITRF93                          {East-longitude positive}
Center radii    : 6378.1 x 6378.1 x 6356.8 km     {Equator, meridian, pole}    
Target primary  : Sun (R_eq= 696000.000) km
Vis. interferer : MOON (R_eq= 1737.400) km        {source: DE441}
Rel. light bend : Sun                             {source: DE441}
Rel. lght bnd GM: 1.3271E+11 km^3/s^2                                          
Atmos refraction: NO (AIRLESS)
RA format       : HMS
Time format     : JD  
EOP file        : eop.230201.p230427                                           
EOP coverage    : DATA-BASED 1962-JAN-20 TO 2023-FEB-01. PREDICTS-> 2023-APR-26
Units conversion: 1 au= 149597870.700 km, c= 299792.458 km/s, 1 day= 86400.0 s 
Table cut-offs 1: Elevation (-90.0deg=NO ),Airmass (>38.000=NO), Daylight (NO )
Table cut-offs 2: Solar elongation (  0.0,180.0=NO ),Local Hour Angle( 0.0=NO )
Table cut-offs 3: RA/DEC angular rate (     0.0=NO )                           
Table format    : Comma Separated Values (spreadsheet)
************************************************************************************************************************************************************************************
Date_________JDUT, , , R.A._(ICRF), DEC__(ICRF),    APmag,  S-brt,             delta,     deldot,     S-O-T,/r,     S-T-O,  Sky_motion, Sky_mot_PA, RelVel-ANG, Lun_Sky_Brt  sky_SNR
************************************************************************************************************************************************************************************
$$SOE
2461105.500000000, , , 23 09 56.67, -01 22 04.3,    5.014,  5.137,  0.63711424715190,-15.1693495,    4.6871,/T,  167.0124,   2.3835521,  246.62912,  -39.56600,        n.a.     n.a.
2461106.500000000, , , 23 06 23.06, -01 46 12.0,    5.452,  5.092,  0.62939506164587,-11.5703386,    3.7731,/L,  169.7372,   2.4888875,  244.69940,  -31.42236,        n.a.     n.a.
2461107.500000000, , , 23 02 46.00, -02 12 51.1,    5.499,  5.116,  0.62373279763793, -8.0543306,    3.7598,/L,  169.9341,   2.5371579,  242.90538,  -22.82870,        n.a.     n.a.
2461108.500000000, , , 22 59 10.54, -02 41 22.8,    5.155,  5.230,  0.62006737066717, -4.6622256,    4.6789,/L,  167.6358,   2.5296789,  241.15911,  -13.80900,        n.a.     n.a.
2461109.500000000, , , 22 55 41.43, -03 11 08.0,    4.632,  5.268,  0.61831681172995, -1.4287409,    6.1131,/L,  164.0129,   2.4699872,  239.38482,  -4.419812,        n.a.     n.a.
2461110.500000000, , , 22 52 22.95, -03 41 28.6,    4.076,  5.207,  0.61838111286519,  1.6184571,    7.7531,/L,  159.8845,   2.3634642,  237.50677,  5.2398735,        n.a.     n.a.
2461111.500000000, , , 22 49 18.84, -04 11 48.7,    3.550,  5.088,  0.62014643802844,  4.4591459,    9.4544,/L,  155.6099,   2.2168720,  235.43854,  15.025487,        n.a.     n.a.
2461112.500000000, , , 22 46 32.22, -04 41 36.1,    3.076,  4.946,  0.62348942008060,  7.0804596,   11.1475,/L,  151.3455,   2.0378733,  233.07022,  24.754476,        n.a.     n.a.
2461113.500000000, , , 22 44 05.54, -05 10 22.4,    2.659,  4.801,  0.62828128163764,  9.4763833,   12.7944,/L,  147.1664,   1.8346223,  230.24969,  34.224515,        n.a.     n.a.
2461114.500000000, , , 22 42 00.60, -05 37 44.0,    2.299,  4.665,  0.63439156641716, 11.6469319,   14.3725,/L,  143.1114,   1.6155146,  226.75168,  43.235669,        n.a.     n.a.
2461115.500000000, , , 22 40 18.64, -06 03 21.4,    1.992,  4.543,  0.64169133502156, 13.5971387,   15.8677,/L,  139.2012,   1.3892162,  222.22327,  51.605221,        n.a.     n.a.
2461116.500000000, , , 22 39 00.32, -06 26 59.9,    1.731,  4.437,  0.65005575010650, 15.3359717,   17.2713,/L,  135.4459,   1.1651681,  216.08689,  59.163882,        n.a.     n.a.
2461117.500000000, , , 22 38 05.88, -06 48 28.2,    1.511,  4.345,  0.65936603866933, 16.8752741,   18.5784,/L,  131.8494,   0.9549593,  207.38306,  65.723694,        n.a.     n.a.
2461118.500000000, , , 22 37 35.14, -07 07 38.7,    1.326,  4.267,  0.66951086673271, 18.2287979,   19.7869,/L,  128.4114,   0.7751608,  194.63532,  71.009742,        n.a.     n.a.
2461119.500000000, , , 22 37 27.65, -07 24 26.4,    1.171,  4.201,  0.68038719215793, 19.4113672,   20.8967,/L,  125.1288,   0.6508702,  176.37973,  74.582984,        n.a.     n.a.
2461120.500000000, , , 22 37 42.72, -07 38 48.9,    1.040,  4.145,  0.69190067690781, 20.4381899,   21.9092,/L,  121.9965,   0.6108512,  153.80305,  75.965418,        n.a.     n.a.
2461121.500000000, , , 22 38 19.48, -07 50 45.6,    0.930,  4.097,  0.70396574500283, 21.3243180,   22.8268,/L,  119.0084,   0.6619759,  132.44530,  75.202587,        n.a.     n.a.
2461122.500000000, , , 22 39 16.97, -08 00 17.3,    0.838,  4.055,  0.71650537059441, 22.0842504,   23.6529,/L,  116.1572,   0.7780825,  116.43593,  73.030205,        n.a.     n.a.
2461123.500000000, , , 22 40 34.14, -08 07 25.8,    0.759,  4.018,  0.72945067425937, 22.7316628,   24.3910,/L,  113.4355,   0.9276151,  105.48569,  70.209936,        n.a.     n.a.
2461124.500000000, , , 22 42 09.93, -08 12 13.8,    0.692,  3.985,  0.74274039565887, 23.2792449,   25.0451,/L,  110.8355,   1.0905494,  97.960199,  67.188018,        n.a.     n.a.
2461125.500000000, , , 22 44 03.25, -08 14 44.6,    0.635,  3.955,  0.75632029796974, 23.7386229,   25.6194,/L,  108.3492,   1.2564484,  92.589489,  64.177371,        n.a.     n.a.
2461126.500000000, , , 22 46 13.06, -08 15 01.6,    0.586,  3.928,  0.77014254572329, 24.1203410,   26.1178,/L,  105.9690,   1.4200607,  88.591053,  61.272638,        n.a.     n.a.
2461127.500000000, , , 22 48 38.32, -08 13 08.7,    0.542,  3.902,  0.78416508497991, 24.4338846,   26.5444,/L,  103.6872,   1.5787551,  85.498000,  58.512798,        n.a.     n.a.
2461128.500000000, , , 22 51 18.06, -08 09 09.8,    0.504,  3.876,  0.79835104458144, 24.6877279,   26.9030,/L,  101.4964,   1.7312618,  83.025733,  55.910495,        n.a.     n.a.
2461129.500000000, , , 22 54 11.34, -08 03 08.5,    0.470,  3.852,  0.81266816987384, 24.8893972,   27.1973,/L,   99.3896,   1.8770513,  80.994632,  53.465732,        n.a.     n.a.
2461130.500000000, , , 22 57 17.29, -07 55 09.0,    0.439,  3.827,  0.82708829525251, 25.0455408,   27.4309,/L,   97.3597,   2.0160132,  79.287209,  51.172477,        n.a.     n.a.
2461131.500000000, , , 23 00 35.09, -07 45 14.7,    0.411,  3.803,  0.84158685836462, 25.1620026,   27.6070,/L,   95.4002,   2.1482798,  77.824052,  49.021974,        n.a.     n.a.
2461132.500000000, , , 23 04 03.98, -07 33 29.5,    0.385,  3.778,  0.85614245617513, 25.2438931,   27.7286,/L,   93.5048,   2.2741251,  76.549909,  47.004425,        n.a.     n.a.
2461133.500000000, , , 23 07 43.27, -07 19 56.7,    0.359,  3.752,  0.87073644106502, 25.2956562,   27.7985,/L,   91.6674,   2.3939035,  75.425357,  45.109865,        n.a.     n.a.
2461134.500000000, , , 23 11 32.32, -07 04 39.9,    0.335,  3.726,  0.88535255364996, 25.3211295,   27.8194,/L,   89.8821,   2.5080123,  74.421650,  43.328598,        n.a.     n.a.
2461135.500000000, , , 23 15 30.53, -06 47 42.1,    0.311,  3.699,  0.89997658814673, 25.3235968,   27.7937,/L,   88.1434,   2.6168678,  73.517438,  41.651411,        n.a.     n.a.
2461136.500000000, , , 23 19 37.38, -06 29 06.5,    0.288,  3.671,  0.91459608587252, 25.3058326,   27.7234,/L,   86.4459,   2.7208905,  72.696605,  40.069657,        n.a.     n.a.
2461137.500000000, , , 23 23 52.39, -06 08 56.1,    0.264,  3.642,  0.92920005270416, 25.2701411,   27.6107,/L,   84.7843,   2.8204949,  71.946827,  38.575266,        n.a.     n.a.
2461138.500000000, , , 23 28 15.13, -05 47 13.7,    0.240,  3.612,  0.94377869683221, 25.2183878,   27.4573,/L,   83.1535,   2.9160837,  71.258576,  37.160736,        n.a.     n.a.
2461139.500000000, , , 23 32 45.21, -05 24 01.9,    0.215,  3.581,  0.95832318371996, 25.1520271,   27.2649,/L,   81.5487,   3.0080437,  70.624415,  35.819087,        n.a.     n.a.
2461140.500000000, , , 23 37 22.31, -04 59 23.4,    0.190,  3.548,  0.97282540569891, 25.0721261,   27.0348,/L,   79.9649,   3.0967434,  70.038505,  34.543828,        n.a.     n.a.
2461141.500000000, , , 23 42 06.11, -04 33 20.6,    0.163,  3.514,  0.98727776407222, 24.9793840,   26.7684,/L,   78.3975,   3.1825322,  69.496238,  33.328904,        n.a.     n.a.
2461142.500000000, , , 23 46 56.38, -04 05 55.9,    0.135,  3.479,  1.00167296196391, 24.8741497,   26.4669,/L,   76.8418,   3.2657395,  68.993970,  32.168658,        n.a.     n.a.
2461143.500000000, , , 23 51 52.89, -03 37 11.7,    0.106,  3.442,  1.01600380644199, 24.7564367,   26.1312,/L,   75.2932,   3.3466753,  68.528819,  31.057790,        n.a.     n.a.
2461144.500000000, , , 23 56 55.47, -03 07 10.1,    0.075,  3.403,  1.03026301854800, 24.6259357,   25.7623,/L,   73.7469,   3.4256304,  68.098512,  29.991315,        n.a.     n.a.
